ONEWEB-0262             
1 48980U 21060P   25257.09446725 -.00000036  00000+0 -12764-3 0  9999
2 48980  87.8983 283.7953 0001691 102.0365 258.0955 13.16596299203296
ONEWEB-0263             
1 48981U 21060Q   25257.05014884  .00000028  00000+0  39752-4 0  9999
2 48981  87.8974 283.8261 0001426  94.7089 265.4205 13.16594242203258
ONEWEB-0264             
1 48982U 21060R   25257.01135235  .00000004  00000+0 -23890-4 0  9991
2 48982  87.8972 283.8385 0001777  84.7997 275.3336 13.16593331203253
ONEWEB-0266             
1 48984U 21060T   25257.03273028 -.00000014  00000+0 -71089-4 0  9993
2 48984  87.8982 283.8113 0001970  98.6850 261.4504 13.16595044203247
ONEWEB-0267             
1 48985U 21060U   25257.04381538  .00000017  00000+0  11865-4 0  9998
2 48985  87.8980 283.8119 0001627  89.9180 270.2138 13.16594195203258
ONEWEB-0268             
1 48986U 21060V   25257.01213832 -.00000005  00000+0 -45984-4 0  9995
2 48986  87.8980 283.8241 0001872  89.3491 270.7854 13.16595638203518
ONEWEB-0269             
1 48987U 21060W   25256.84116004  .00000122  00000+0  28435-3 0  9998
2 48987  87.8973 283.8885 0002031  91.9312 268.2051 13.16593811203268
ONEWEB-0270             
1 48988U 21060X   25257.08656035 -.00000040  00000+0 -13786-3 0  9993
2 48988  87.8983 283.8108 0001406  97.3522 262.7769 13.16594905203334
ONEWEB-0271             
1 48989U 21060Y   25257.30188519  .00000050  00000+0  97743-4 0  9991
2 48989  87.8985 283.7520 0001592  89.9924 270.1390 13.16595043203363
ONEWEB-0272             
1 48990U 21060Z   25256.79205911 -.00000056  00000+0 -18123-3 0  9993
2 48990  87.8977 283.8817 0001728  86.2526 273.8802 13.16596269203241
ONEWEB-0273             
1 48991U 21060AA  25257.04223869  .00000018  00000+0  12175-4 0  9993
2 48991  87.8980 283.8198 0001741  95.6467 264.4862 13.16594713203256
ONEWEB-0274             
1 48992U 21060AB  25257.06756710 -.00000069  00000+0 -21435-3 0  9998
2 48992  87.8974 283.8461 0002001  78.5343 281.6012 13.16595138203290
ONEWEB-0275             
1 48993U 21060AC  25257.05647791  .00000049  00000+0  93609-4 0  9995
2 48993  87.8979 283.8118 0001820  89.8866 270.2474 13.16593803203224
ONEWEB-0276             
1 48994U 21060AD  25257.08972505 -.00000009  00000+0 -56574-4 0  9991
2 48994  87.8984 283.8022 0001795  97.6872 262.4463 13.16595532203244
ONEWEB-0277             
1 48995U 21060AE  25256.79839570 -.00000101  00000+0 -29903-3 0  9991
2 48995  87.8977 283.8934 0001521  88.5119 271.6186 13.16594818203193
ONEWEB-0278             
1 48996U 21060AF  25257.09288189 -.00000012  00000+0 -64715-4 0  9992
2 48996  87.8984 283.7983 0001971  98.6302 261.5053 13.16595799203369
