[{"OBJECT_NAME":"ONEWEB-0262","OBJECT_ID":"2021-060P","EPOCH":"2025-09-14T02:16:01.970400","MEAN_MOTION":13.16596299,"ECCENTRICITY":0.00016917,"INCLINATION":87.8983,"RA_OF_ASC_NODE":283.7953,"ARG_OF_PERICENTER":102.0365,"MEAN_ANOMALY":258.0955,"EPHEMERIS_TYPE":0,"CLASSIFICATION_TYPE":"U","NORAD_CAT_ID":48980,"ELEMENT_SET_NO":999,"REV_AT_EPOCH":20329,"BSTAR":-0.00012764312,"MEAN_MOTION_DOT":-3.6e-7,"MEAN_MOTION_DDOT":0},{"OBJECT_NAME":"ONEWEB-0263","OBJECT_ID":"2021-060Q","EPOCH":"2025-09-14T01:12:12.859776","MEAN_MOTION":13.16594242,"ECCENTRICITY":0.00014267,"INCLINATION":87.8974,"RA_OF_ASC_NODE":283.8261,"ARG_OF_PERICENTER":94.7089,"MEAN_ANOMALY":265.4205,"EPHEMERIS_TYPE":0,"CLASSIFICATION_TYPE":"U","NORAD_CAT_ID":48981,"ELEMENT_SET_NO":999,"REV_AT_EPOCH":20325,"BSTAR":3.9752411e-5,"MEAN_MOTION_DOT":2.8e-7,"MEAN_MOTION_DDOT":0},{"OBJECT_NAME":"ONEWEB-0264","OBJECT_ID":"2021-060R","EPOCH":"2025-09-14T00:16:20.843040","MEAN_MOTION":13.16593331,"ECCENTRICITY":0.00017775,"INCLINATION":87.8972,"RA_OF_ASC_NODE":283.8385,"ARG_OF_PERICENTER":84.7997,"MEAN_ANOMALY":275.3336,"EPHEMERIS_TYPE":0,"CLASSIFICATION_TYPE":"U","NORAD_CAT_ID":48982,"ELEMENT_SET_NO":999,"REV_AT_EPOCH":20325,"BSTAR":-2.3889612e-5,"MEAN_MOTION_DOT":4.0e-8,"MEAN_MOTION_DDOT":0},{"OBJECT_NAME":"ONEWEB-0266","OBJECT_ID":"2021-060T","EPOCH":"2025-09-14T00:47:07.896192","MEAN_MOTION":13.16595044,"ECCENTRICITY":0.00019707,"INCLINATION":87.8982,"RA_OF_ASC_NODE":283.8113,"ARG_OF_PERICENTER":98.685,"MEAN_ANOMALY":261.4504,"EPHEMERIS_TYPE":0,"CLASSIFICATION_TYPE":"U","NORAD_CAT_ID":48984,"ELEMENT_SET_NO":999,"REV_AT_EPOCH":20324,"BSTAR":-7.1089159e-5,"MEAN_MOTION_DOT":-1.4e-7,"MEAN_MOTION_DDOT":0},{"OBJECT_NAME":"ONEWEB-0267","OBJECT_ID":"2021-060U","EPOCH":"2025-09-14T01:03:05.648832","MEAN_MOTION":13.16594195,"ECCENTRICITY":0.00016272,"INCLINATION":87.898,"RA_OF_ASC_NODE":283.8119,"ARG_OF_PERICENTER":89.918,"MEAN_ANOMALY":270.2138,"EPHEMERIS_TYPE":0,"CLASSIFICATION_TYPE":"U","NORAD_CAT_ID":48985,"ELEMENT_SET_NO":999,"REV_AT_EPOCH":20325,"BSTAR":1.1865216e-5,"MEAN_MOTION_DOT":1.7e-7,"MEAN_MOTION_DDOT":0},{"OBJECT_NAME":"ONEWEB-0268","OBJECT_ID":"2021-060V","EPOCH":"2025-09-14T00:17:28.750848","MEAN_MOTION":13.16595638,"ECCENTRICITY":0.00018721,"INCLINATION":87.898,"RA_OF_ASC_NODE":283.8241,"ARG_OF_PERICENTER":89.3491,"MEAN_ANOMALY":270.7854,"EPHEMERIS_TYPE":0,"CLASSIFICATION_TYPE":"U","NORAD_CAT_ID":48986,"ELEMENT_SET_NO":999,"REV_AT_EPOCH":20351,"BSTAR":-4.598441e-5,"MEAN_MOTION_DOT":-5.0e-8,"MEAN_MOTION_DDOT":0},{"OBJECT_NAME":"ONEWEB-0269","OBJECT_ID":"2021-060W","EPOCH":"2025-09-13T20:11:16.227456","MEAN_MOTION":13.16593811,"ECCENTRICITY":0.00020318,"INCLINATION":87.8973,"RA_OF_ASC_NODE":283.8885,"ARG_OF_PERICENTER":91.9312,"MEAN_ANOMALY":268.2051,"EPHEMERIS_TYPE":0,"CLASSIFICATION_TYPE":"U","NORAD_CAT_ID":48987,"ELEMENT_SET_NO":999,"REV_AT_EPOCH":20326,"BSTAR":0.00028435031,"MEAN_MOTION_DOT":1.22e-6,"MEAN_MOTION_DDOT":0},{"OBJECT_NAME":"ONEWEB-0270","OBJECT_ID":"2021-060X","EPOCH":"2025-09-14T02:04:38.814240","MEAN_MOTION":13.16594905,"ECCENTRICITY":0.00014069,"INCLINATION":87.8983,"RA_OF_ASC_NODE":283.8108,"ARG_OF_PERICENTER":97.3522,"MEAN_ANOMALY":262.7769,"EPHEMERIS_TYPE":0,"CLASSIFICATION_TYPE":"U","NORAD_CAT_ID":48988,"ELEMENT_SET_NO":999,"REV_AT_EPOCH":20333,"BSTAR":-0.0001378618,"MEAN_MOTION_DOT":-4.0e-7,"MEAN_MOTION_DDOT":0},{"OBJECT_NAME":"ONEWEB-0271","OBJECT_ID":"2021-060Y","EPOCH":"2025-09-14T07:14:42.880416","MEAN_MOTION":13.16595043,"ECCENTRICITY":0.00015921,"INCLINATION":87.8985,"RA_OF_ASC_NODE":283.752,"ARG_OF_PERICENTER":89.9924,"MEAN_ANOMALY":270.139,"EPHEMERIS_TYPE":0,"CLASSIFICATION_TYPE":"U","NORAD_CAT_ID":48989,"ELEMENT_SET_NO":999,"REV_AT_EPOCH":20336,"BSTAR":9.7743195e-5,"MEAN_MOTION_DOT":5.0e-7,"MEAN_MOTION_DDOT":0},{"OBJECT_NAME":"ONEWEB-0272","OBJECT_ID":"2021-060Z","EPOCH":"2025-09-13T19:00:33.907104","MEAN_MOTION":13.16596269,"ECCENTRICITY":0.00017289,"INCLINATION":87.8977,"RA_OF_ASC_NODE":283.8817,"ARG_OF_PERICENTER":86.2526,"MEAN_ANOMALY":273.8802,"EPHEMERIS_TYPE":0,"CLASSIFICATION_TYPE":"U","NORAD_CAT_ID":48990,"ELEMENT_SET_NO":999,"REV_AT_EPOCH":20324,"BSTAR":-0.00018123349,"MEAN_MOTION_DOT":-5.6e-7,"MEAN_MOTION_DDOT":0},{"OBJECT_NAME":"ONEWEB-0273","OBJECT_ID":"2021-060AA","EPOCH":"2025-09-14T01:00:49.422816","MEAN_MOTION":13.16594713,"ECCENTRICITY":0.00017418,"INCLINATION":87.898,"RA_OF_ASC_NODE":283.8198,"ARG_OF_PERICENTER":95.6467,"MEAN_ANOMALY":264.4862,"EPHEMERIS_TYPE":0,"CLASSIFICATION_TYPE":"U","NORAD_CAT_ID":48991,"ELEMENT_SET_NO":999,"REV_AT_EPOCH":20325,"BSTAR":1.2174953e-5,"MEAN_MOTION_DOT":1.8e-7,"MEAN_MOTION_DDOT":0},{"OBJECT_NAME":"ONEWEB-0274","OBJECT_ID":"2021-060AB","EPOCH":"2025-09-14T01:37:17.797440","MEAN_MOTION":13.16595138,"ECCENTRICITY":0.00020017,"INCLINATION":87.8974,"RA_OF_ASC_NODE":283.8461,"ARG_OF_PERICENTER":78.5343,"MEAN_ANOMALY":281.6012,"EPHEMERIS_TYPE":0,"CLASSIFICATION_TYPE":"U","NORAD_CAT_ID":48992,"ELEMENT_SET_NO":999,"REV_AT_EPOCH":20329,"BSTAR":-0.00021435385,"MEAN_MOTION_DOT":-6.9e-7,"MEAN_MOTION_DDOT":0},{"OBJECT_NAME":"ONEWEB-0275","OBJECT_ID":"2021-060AC","EPOCH":"2025-09-14T01:21:19.691424","MEAN_MOTION":13.16593803,"ECCENTRICITY":0.00018205,"INCLINATION":87.8979,"RA_OF_ASC_NODE":283.8118,"ARG_OF_PERICENTER":89.8866,"MEAN_ANOMALY":270.2474,"EPHEMERIS_TYPE":0,"CLASSIFICATION_TYPE":"U","NORAD_CAT_ID":48993,"ELEMENT_SET_NO":999,"REV_AT_EPOCH":20322,"BSTAR":9.3609196e-5,"MEAN_MOTION_DOT":4.9e-7,"MEAN_MOTION_DDOT":0},{"OBJECT_NAME":"ONEWEB-0276","OBJECT_ID":"2021-060AD","EPOCH":"2025-09-14T02:09:12.244320","MEAN_MOTION":13.16595532,"ECCENTRICITY":0.00017954,"INCLINATION":87.8984,"RA_OF_ASC_NODE":283.8022,"ARG_OF_PERICENTER":97.6872,"MEAN_ANOMALY":262.4463,"EPHEMERIS_TYPE":0,"CLASSIFICATION_TYPE":"U","NORAD_CAT_ID":48994,"ELEMENT_SET_NO":999,"REV_AT_EPOCH":20324,"BSTAR":-5.6574396e-5,"MEAN_MOTION_DOT":-9.0e-8,"MEAN_MOTION_DDOT":0},{"OBJECT_NAME":"ONEWEB-0277","OBJECT_ID":"2021-060AE","EPOCH":"2025-09-13T19:09:41.388480","MEAN_MOTION":13.16594818,"ECCENTRICITY":0.00015213,"INCLINATION":87.8977,"RA_OF_ASC_NODE":283.8934,"ARG_OF_PERICENTER":88.5119,"MEAN_ANOMALY":271.6186,"EPHEMERIS_TYPE":0,"CLASSIFICATION_TYPE":"U","NORAD_CAT_ID":48995,"ELEMENT_SET_NO":999,"REV_AT_EPOCH":20319,"BSTAR":-0.00029902732,"MEAN_MOTION_DOT":-1.01e-6,"MEAN_MOTION_DDOT":0},{"OBJECT_NAME":"ONEWEB-0278","OBJECT_ID":"2021-060AF","EPOCH":"2025-09-14T02:13:44.995296","MEAN_MOTION":13.16595799,"ECCENTRICITY":0.00019713,"INCLINATION":87.8984,"RA_OF_ASC_NODE":283.7983,"ARG_OF_PERICENTER":98.6302,"MEAN_ANOMALY":261.5053,"EPHEMERIS_TYPE":0,"CLASSIFICATION_TYPE":"U","NORAD_CAT_ID":48996,"ELEMENT_SET_NO":999,"REV_AT_EPOCH":20336,"BSTAR":-6.4715357e-5,"MEAN_MOTION_DOT":-1.2e-7,"MEAN_MOTION_DDOT":0}]
